STARLINK-37592          
1 69025U 26101A   26156.25005787 -.02243811  00000+0 -66216-1 0  9990
2 69025  97.2854  11.2119 0002252 103.1912 101.9548 15.38398593  6033
STARLINK-37637          
1 69026U 26101B   26156.03649837  .00079639  00000+0  14481-2 0  9996
2 69026  97.2834  10.9542 0001371  96.8483 263.2924 15.49250640  4704
STARLINK-37548          
1 69027U 26101C   26156.20545064 -.00431815  00000+0 -89733-2 0  9995
2 69027  97.2838  11.1812 0001481  76.3147 283.8268 15.47230219  4734
STARLINK-37634          
1 69028U 26101D   26156.00002315  .00117202  00000+0  21295-2 0  9999
2 69028  97.2840  11.0315 0001923  94.1848 339.9258 15.49124661  5998
STARLINK-37635          
1 69029U 26101E   26156.25005787 -.01369086  00000+0 -45216-1 0  9993
2 69029  97.2848  11.2362 0002538  73.4084 186.0719 15.34363989  6004
STARLINK-37615          
1 69030U 26101F   26156.25005787 -.02288135  00000+0 -59551-1 0  9998
2 69030  97.2847  11.2584 0001732 117.0059 201.1764 15.42259680  6036
STARLINK-37240          
1 69031U 26101G   26156.08289260  .00054551  00000+0  99587-3 0  9994
2 69031  97.2853  11.0429 0001816  75.5460 284.5992 15.49242369  4711
STARLINK-37596          
1 69032U 26101H   26156.11739868  .00058519  00000+0  10680-2 0  9997
2 69032  97.2832  10.9980 0001719  62.7837 297.3589 15.49232306  4711
STARLINK-37591          
1 69033U 26101J   26156.08475924  .00054540  00000+0  99601-3 0  9995
2 69033  97.2833  11.0422 0001576 168.5676 191.5611 15.49233025  4713
STARLINK-37611          
1 69034U 26101K   26156.25005787 -.02437822  00000+0 -62293-1 0  9998
2 69034  97.2844  11.2332 0002292  86.7711 158.3302 15.43024575  6032
STARLINK-37512          
1 69035U 26101L   26156.04240599  .00052449  00000+0  95882-3 0  9994
2 69035  97.2865  10.9436 0001129  55.4443 304.6915 15.49212887  4709
STARLINK-37609          
1 69036U 26101M   26155.59744901  .00030665  00000+0  56218-3 0  9996
2 69036  97.2833  10.4786 0001523  13.7451 346.3842 15.49245275  4633
STARLINK-37608          
1 69037U 26101N   26156.08538576  .00045344  00000+0  82918-3 0  9997
2 69037  97.2825  11.0418 0001469 159.1431 200.9880 15.49238160  4717
STARLINK-37466          
1 69038U 26101P   26156.11797761  .00077766  00000+0  14161-2 0  9992
2 69038  97.2848  10.9971 0001635  75.7186 284.4247 15.49215372  4714
STARLINK-37612          
1 69039U 26101Q   26156.25005787 -.02407825  00000+0 -65508-1 0  9995
2 69039  97.2853  11.2249 0002278  88.4787 136.9467 15.41111967  6034
STARLINK-37616          
1 69040U 26101R   26156.25005787 -.00032587  00000+0 -10121-2 0  9996
2 69040  97.2851  11.2206 0002039  74.5329 155.3603 15.33419936  6035
STARLINK-37614          
1 69041U 26101S   26155.56661096  .00045051  00000+0  82505-3 0  9995
2 69041  97.2845  10.5202 0001433  45.4171 314.7197 15.49196969  4634
STARLINK-37644          
1 69042U 26101T   26156.08163000  .00046098  00000+0  84276-3 0  9995
2 69042  97.2859  11.0434 0003062  55.9835 304.1706 15.49237401  4711
STARLINK-37571          
1 69043U 26101U   26156.07965267  .00042160  00000+0  77150-3 0  9999
2 69043  97.2847  11.0503 0002106  80.8157 279.3332 15.49232233  4714
STARLINK-37664          
1 69044U 26101V   26155.14740297  .00046466  00000+0  85058-3 0  9990
2 69044  97.2824  10.0188 0002760  74.6238 285.5318 15.49200131  4563
STARLINK-37667          
1 69045U 26101W   26156.25005787 -.03084556  00000+0 -91715-1 0  9994
2 69045  97.2847  11.2988 0001388 103.1839 313.3875 15.38778075  6037
STARLINK-37666          
1 69046U 26101X   26156.25005787 -.02392990  00000+0 -60902-1 0  9992
2 69046  97.2841  11.3367 0001708  78.1360  46.0547 15.43081591  6032
STARLINK-37576          
1 69047U 26101Y   26156.25005787 -.02425660  00000+0 -59727-1 0  9997
2 69047  97.2845  11.3472 0001959  85.7377  61.9743 15.44102245  6006
STARLINK-37663          
1 69048U 26101Z   26156.07539562  .00060837  00000+0  11120-2 0  9994
2 69048  97.2866  11.0545 0001423  41.9690 318.1670 15.49180025  4715
TIANZHOU-10             
1 69049U 26102A   26156.07366054  .00026328  00000+0  31558-3 0  9995
2 69049  41.4694  35.6942 0009569 344.8796  15.1755 15.60275999  3939
QIANFAN-127             
1 69073U 26104A   26156.30193149  .00000109  00000+0  43219-4 0  9990
2 69073  88.9863 342.9622 0005286 138.6924 221.4668 14.21690690  3405
QIANFAN-128             
1 69074U 26104B   26156.28576120  .00000109  00000+0  46093-4 0  9995
2 69074  88.9864 342.9788 0004563 135.7763 224.3791 14.18045709  3394
QIANFAN-129             
1 69075U 26104C   26156.26195931  .00000124  00000+0  46113-4 0  9991
2 69075  88.9863 342.9561 0004909 144.6905 215.4614 14.25500257  3403
QIANFAN-130             
1 69076U 26104D   26156.27284774  .00000122  00000+0  51702-4 0  9995
2 69076  88.9863 342.9766 0004615 127.0039 233.1573 14.18735007  3392
QIANFAN-131             
1 69077U 26104E   26156.24629901  .00000098  00000+0  38713-4 0  9997
2 69077  88.9862 342.9724 0004129 142.4381 217.7099 14.20505505  3399
